[{"OBJECT_NAME":"STARLINK-35601","OBJECT_ID":"2025-240D","EPOCH":"2026-03-09T23:29:28.416768","MEAN_MOTION":15.30207714,"ECCENTRICITY":0.00015155,"INCLINATION":53.1609,"RA_OF_ASC_NODE":61.404,"ARG_OF_PERICENTER":96.0498,"MEAN_ANOMALY":264.0676,"EPHEMERIS_TYPE":0,"CLASSIFICATION_TYPE":"U","NORAD_CAT_ID":66149,"ELEMENT_SET_NO":999,"REV_AT_EPOCH":2203,"BSTAR":0.00088575691,"MEAN_MOTION_DOT":0.00025972,"MEAN_MOTION_DDOT":0},{"OBJECT_NAME":"KUIPER-00175","OBJECT_ID":"2025-301C","EPOCH":"2026-03-09T23:30:37.840032","MEAN_MOTION":15.30996371,"ECCENTRICITY":0.00022792,"INCLINATION":51.8781,"RA_OF_ASC_NODE":63.6978,"ARG_OF_PERICENTER":50.5695,"MEAN_ANOMALY":309.549,"EPHEMERIS_TYPE":0,"CLASSIFICATION_TYPE":"U","NORAD_CAT_ID":67135,"ELEMENT_SET_NO":999,"REV_AT_EPOCH":1385,"BSTAR":0.00066732304,"MEAN_MOTION_DOT":0.00019968,"MEAN_MOTION_DDOT":0}]
